[{"OBJECT_NAME":"STARLINK-4543","OBJECT_ID":"2022-097AT","EPOCH":"2026-03-09T08:50:22.784064","MEAN_MOTION":15.08843357,"ECCENTRICITY":0.00014048,"INCLINATION":53.2169,"RA_OF_ASC_NODE":105.6793,"ARG_OF_PERICENTER":91.9593,"MEAN_ANOMALY":268.156,"EPHEMERIS_TYPE":0,"CLASSIFICATION_TYPE":"U","NORAD_CAT_ID":53429,"ELEMENT_SET_NO":999,"REV_AT_EPOCH":19873,"BSTAR":3.7176929e-5,"MEAN_MOTION_DOT":3.04e-6,"MEAN_MOTION_DDOT":0},{"OBJECT_NAME":"PSLV DEB","OBJECT_ID":"2001-049CY","EPOCH":"2026-03-09T18:20:37.296384","MEAN_MOTION":15.08389698,"ECCENTRICITY":0.00190632,"INCLINATION":97.9861,"RA_OF_ASC_NODE":156.2845,"ARG_OF_PERICENTER":340.3269,"MEAN_ANOMALY":19.722,"EPHEMERIS_TYPE":0,"CLASSIFICATION_TYPE":"U","NORAD_CAT_ID":27152,"ELEMENT_SET_NO":999,"REV_AT_EPOCH":30598,"BSTAR":0.00053695108,"MEAN_MOTION_DOT":8.318e-5,"MEAN_MOTION_DDOT":0}]
